{
"type": "FeatureCollection",
"name": "UMKM_2",
"crs": { "type": "name", "properties": { "name": "urn:ogc:def:crs:OGC:1.3:CRS84" } },
"features": [
{ "type": "Feature", "properties": { "field_1": 145, "NIB": 282010040416.0, "Tanggal Te": "01/10/2020", "X": 429328.3, "Y": 9139152.8, "Kelurahan": "BUMIJO", "Kecamatan": "JETIS", "Kota": "KOTA YOGYAKARTA", "Status Tem": "SEWA", "KBLI": "96999 - AKTIVITAS JASA PERORANGAN LAINNYA YTDL", "Sarana Usa": "Teras rumah", "Alamat": "JL. TENTARA PELAJAR NO.1", "Kelurahan_": "BUMIJO", "Kecamatan_": "JETIS", "Kab/Kota": "KOTA YOGYAKARTA", "Provinsi": "DI. YOGYAKARTA", "Nama_Usaha": "JASA PEMBUATAN PLAT KENDARAAN BERMOTOR", "Alamat_Ush": "JALAN TENTARA PELAJAR NO 1", "Pelaku": "ROSMELIANI" }, "geometry": { "type": "Point", "coordinates": [ 110.359031941162499, -7.787390266359162 ] } },
{ "type": "Feature", "properties": { "field_1": 47, "NIB": 220103173703.0, "Tanggal Te": "30/01/2020", "X": 429348.6, "Y": 9139162.2, "Kelurahan": "BUMIJO", "Kecamatan": "JETIS", "Kota": "KOTA YOGYAKARTA", "Status Tem": "SEWA", "KBLI": "63111 - AKTIVITAS PENGOLAHAN DATA", "Sarana Usa": "Komputer, Alat Tulis, dan alat pendukung usaha", "Alamat": "JL.BEJI NOMOR. 15", "Kelurahan_": "PURWOKINANTI", "Kecamatan_": "PAKUALAMAN", "Kab/Kota": "KOTA YOGYAKARTA", "Provinsi": "DI. YOGYAKARTA", "Nama_Usaha": "BIRO JASA KONCO DEWE", "Alamat_Ush": "JL. TENTARA PELAJAR NO. 7 (DEPAN SAMSAT KODYA)", "Pelaku": "DINDA WAHYU SETIAWAN" }, "geometry": { "type": "Point", "coordinates": [ 110.359216176518117, -7.787305520938234 ] } },
{ "type": "Feature", "properties": { "field_1": 323, "NIB": 204010201012.0, "Tanggal Te": "11/12/2020", "X": 429360.04, "Y": 9139183.14, "Kelurahan": "BUMIJO", "Kecamatan": "JETIS", "Kota": "KOTA YOGYAKARTA", "Status Tem": "BUKAN SEWA", "KBLI": "47855 - PERDAGANGAN ECERAN KAKI LIMA DAN LOS PASAR PERLENGKAPAN PENGENDARA SEPEDA MOTOR", "Sarana Usa": "Aluminium, lem,alat pukul, cat", "Alamat": "TRINI", "Kelurahan_": "TRIHANGGO", "Kecamatan_": "GAMPING", "Kab/Kota": "KAB. SLEMAN", "Provinsi": "DI. YOGYAKARTA", "Nama_Usaha": "BIRO JASA LANCAR JAYA", "Alamat_Ush": "JALAN TENTARA PELAJAR BUMIJO", "Pelaku": "JODI ANGGA SETIAWAN" }, "geometry": { "type": "Point", "coordinates": [ 110.359320216683628, -7.787116273829223 ] } },
{ "type": "Feature", "properties": { "field_1": 441, "NIB": 1253001411296.0, "Tanggal Te": "19/04/2021", "X": 429360.29, "Y": 9139180.47, "Kelurahan": "BUMIJO", "Kecamatan": "JETIS", "Kota": "KOTA YOGYAKARTA", "Status Tem": "BUKAN SEWA", "KBLI": "45407 - REPARASI DAN PERAWATAN SEPEDA MOTOR", "Sarana Usa": "Kios tepi jalan", "Alamat": "BADRAN JT. I/968", "Kelurahan_": "BUMIJO", "Kecamatan_": "JETIS", "Kab/Kota": "KOTA YOGYAKARTA", "Provinsi": "DI. YOGYAKARTA", "Nama_Usaha": "PASTEL PLAT NOMOR", "Alamat_Ush": "JL. TENTARA PELAJAR 7A_x000D_ KELURAHAN BUMIJO_x00", "Pelaku": "AGUNG BUDI TRIYONO" }, "geometry": { "type": "Point", "coordinates": [ 110.359306343234309, -7.787239321091788 ] } },
{ "type": "Feature", "properties": { "field_1": 331, "NIB": 233011140425.0, "Tanggal Te": "02/11/2020", "X": 429389.1, "Y": 9139451.5, "Kelurahan": "BUMIJO", "Kecamatan": "JETIS", "Kota": "KOTA YOGYAKARTA", "Status Tem": "BUKAN SEWA", "KBLI": "56290 - PENYEDIAAN MAKANAN LAINNYA", "Sarana Usa": "Rumah", "Alamat": "BUMIJO KULON JT. I/1091", "Kelurahan_": "BUMIJO", "Kecamatan_": "JETIS", "Kab/Kota": "KOTA YOGYAKARTA", "Provinsi": "DI. YOGYAKARTA", "Nama_Usaha": "WAROENG KELONTONG BU SRIANDI", "Alamat_Ush": "BUMIJO KULON JT I/1091", "Pelaku": "ANDI SUPARTONO" }, "geometry": { "type": "Point", "coordinates": [ 110.359587454973152, -7.784689334946871 ] } },
{ "type": "Feature", "properties": { "field_1": 199, "NIB": 265011082913.0, "Tanggal Te": "21/10/2020", "X": 429390.0, "Y": 9139206.6, "Kelurahan": "BUMIJO", "Kecamatan": "JETIS", "Kota": "KOTA YOGYAKARTA", "Status Tem": "SEWA", "KBLI": "56103 - KEDAI MAKANAN", "Sarana Usa": "Kompor,wajan,panc i,meja", "Alamat": "SUSUKAN III", "Kelurahan_": "MARGOKATON", "Kecamatan_": "SEYEGAN", "Kab/Kota": "KAB. SLEMAN", "Provinsi": "DI. YOGYAKARTA", "Nama_Usaha": "NASI GORENG KAMBING SAMSAT JOGJA", "Alamat_Ush": "BUMIJO", "Pelaku": "MOH FAHRUDIN" }, "geometry": { "type": "Point", "coordinates": [ 110.359592659457888, -7.786894222106425 ] } },
{ "type": "Feature", "properties": { "field_1": 311, "NIB": 289010063311.0, "Tanggal Te": "31/10/2020", "X": 429403.89, "Y": 9139525.92, "Kelurahan": "BUMIJO", "Kecamatan": "JETIS", "Kota": "KOTA YOGYAKARTA", "Status Tem": "BUKAN SEWA", "KBLI": "10710 - INDUSTRI PRODUK ROTI DAN KUE", "Sarana Usa": "Rumah", "Alamat": "BUMIJO KULON JT. I/1077 A", "Kelurahan_": "BUMIJO", "Kecamatan_": "JETIS", "Kab/Kota": "KOTA YOGYAKARTA", "Provinsi": "DI. YOGYAKARTA", "Nama_Usaha": "MBAK SHINTA SNACK, BUMIJO", "Alamat_Ush": "BUMIJO KULON JT I/1077 A RT 035 RW 008", "Pelaku": "SHINTA WEDAWATI" }, "geometry": { "type": "Point", "coordinates": [ 110.359722610231103, -7.784016402718368 ] } },
{ "type": "Feature", "properties": { "field_1": 112, "NIB": 211000981118.0, "Tanggal Te": "11/09/2020", "X": 429410.2, "Y": 9139162.4, "Kelurahan": "BUMIJO", "Kecamatan": "JETIS", "Kota": "KOTA YOGYAKARTA", "Status Tem": "BUKAN SEWA", "KBLI": "47822 - PERDAGANGAN ECERAN KAKI LIMA DAN LOS PASAR ROTI, KUE KERING, KUE BASAH DAN SEJENISNYA", "Sarana Usa": "Gerobak, alatpanggang,kursi,tenda, alat masak", "Alamat": "BUMIJO KIDUL JT. I/1147", "Kelurahan_": "BUMIJO", "Kecamatan_": "JETIS", "Kab/Kota": "KOTA YOGYAKARTA", "Provinsi": "DI. YOGYAKARTA", "Nama_Usaha": "ROTI BAKAR BUMIJO", "Alamat_Ush": "JL. TENTARA PELAJAR", "Pelaku": "KRISTYANTO" }, "geometry": { "type": "Point", "coordinates": [ 110.359927240144586, -7.787168329184213 ] } },
{ "type": "Feature", "properties": { "field_1": 93, "NIB": 220602893516.0, "Tanggal Te": "31/08/2020", "X": 429423.00000000006, "Y": 9139148.7, "Kelurahan": "BUMIJO", "Kecamatan": "JETIS", "Kota": "KOTA YOGYAKARTA", "Status Tem": "BUKAN SEWA", "KBLI": "10794 - INDUSTRI KERUPUK, KERIPIK, PEYEK DAN SEJENISNYA", "Sarana Usa": "Alat potong keripik manual, kompor gas, alat press kemasan plastik", "Alamat": "JL.BUMIJO TENGAH NO.28", "Kelurahan_": "BUMIJO", "Kecamatan_": "JETIS", "Kab/Kota": "KOTA YOGYAKARTA", "Provinsi": "DI. YOGYAKARTA", "Nama_Usaha": "CAMILAN AL-FATH", "Alamat_Ush": "JALAN BUMIJO TENGAH NO.28 RT 34 RW 08 BUMIJO JETIS", "Pelaku": "PUJIATI ANDAYANI" }, "geometry": { "type": "Point", "coordinates": [ 110.359890744716168, -7.787428648759282 ] } },
{ "type": "Feature", "properties": { "field_1": 392, "NIB": 1201000221856.0, "Tanggal Te": "15/02/2021", "X": 429445.28, "Y": 9139116.25, "Kelurahan": "BUMIJO", "Kecamatan": "JETIS", "Kota": "KOTA YOGYAKARTA", "Status Tem": "BUKAN SEWA", "KBLI": "56102 - WARUNG MAKAN", "Sarana Usa": "Kompor gas, meja, kursi, etalase, piring, panci", "Alamat": "BUMIJO TENGAH JT. I/1342", "Kelurahan_": "BUMIJO", "Kecamatan_": "JETIS", "Kab/Kota": "KOTA YOGYAKARTA", "Provinsi": "DI. YOGYAKARTA", "Nama_Usaha": "WARUNG MAKAN SEDERHANA", "Alamat_Ush": "BUMIJO TENGAH JT.I/1342", "Pelaku": "SLAMET MARSUDI" }, "geometry": { "type": "Point", "coordinates": [ 110.360092362693834, -7.787722466567017 ] } },
{ "type": "Feature", "properties": { "field_1": 457, "NIB": 1287001462144.0, "Tanggal Te": "24/04/2021", "X": 429458.45, "Y": 9139227.49, "Kelurahan": "BUMIJO", "Kecamatan": "JETIS", "Kota": "KOTA YOGYAKARTA", "Status Tem": "SEWA", "KBLI": "56103 - KEDAI MAKANAN", "Sarana Usa": "meja, kursi, kompor,wajan, panci, gelas,piring, mangkok,sendok, garpu", "Alamat": "BUMIJO KIDUL JT I/1144", "Kelurahan_": "BUMIJO", "Kecamatan_": "JETIS", "Kab/Kota": "KOTA YOGYAKARTA", "Provinsi": "DI. YOGYAKARTA", "Nama_Usaha": "KEDAI TELU PAPAT", "Alamat_Ush": "JL. TENTARA PELAJAR NO. 12", "Pelaku": "AMIN ROKHAYAH" }, "geometry": { "type": "Point", "coordinates": [ 110.36021333155044, -7.786716472329447 ] } },
{ "type": "Feature", "properties": { "field_1": 170, "NIB": 295010011747.0, "Tanggal Te": "14/10/2020", "X": 429467.8, "Y": 9139113.6, "Kelurahan": "BUMIJO", "Kecamatan": "JETIS", "Kota": "KOTA YOGYAKARTA", "Status Tem": "BUKAN SEWA", "KBLI": "47112 - PERDAGANGAN ECERAN BERBAGAI MACAM BARANG YANG UTAMANYA MAKANAN, MINUMAN ATAU TEMBAKAU BUKAN DI SUPERMARKET/MINIMARKET (TRADISIONAL)", "Sarana Usa": "Etalase, KulkasMinuman,Timbangan", "Alamat": "JL. SURYONEGARAN NO.14", "Kelurahan_": "BUMIJO", "Kecamatan_": "JETIS", "Kab/Kota": "KOTA YOGYAKARTA", "Provinsi": "DI. YOGYAKARTA", "Nama_Usaha": "NARES CELL", "Alamat_Ush": "JL. SURYONEGARAN NO. 14 RT 033 RW 008", "Pelaku": "ENDRI HAPSARI ARINI" }, "geometry": { "type": "Point", "coordinates": [ 110.360296566476819, -7.787746744253762 ] } },
{ "type": "Feature", "properties": { "field_1": 454, "NIB": 1214004492329.0, "Tanggal Te": "22/04/2021", "X": 429474.3, "Y": 9139174.84, "Kelurahan": "BUMIJO", "Kecamatan": "JETIS", "Kota": "KOTA YOGYAKARTA", "Status Tem": "BUKAN SEWA", "KBLI": "96999 - AKTIVITAS JASA PERORANGAN LAINNYA YTDL", "Sarana Usa": "gerobak, Cetakan,plat Nomor, Palu,Gunting, TendaKecil, Cat, Tiner,Aluminium", "Alamat": "BUMIJO KIDUL JT.I/1143", "Kelurahan_": "BUMIJO", "Kecamatan_": "JETIS", "Kab/Kota": "KOTA YOGYAKARTA", "Provinsi": "DI. YOGYAKARTA", "Nama_Usaha": "PLAT NOMOR PAK YANTO", "Alamat_Ush": "JALAN TENTARA PELAJAR", "Pelaku": "R. AGUS NURYANTO" }, "geometry": { "type": "Point", "coordinates": [ 110.36035635698002, -7.78719291259869 ] } },
{ "type": "Feature", "properties": { "field_1": 107, "NIB": 226000980671.0, "Tanggal Te": "07/09/2020", "X": 429480.68, "Y": 9139303.19, "Kelurahan": "BUMIJO", "Kecamatan": "JETIS", "Kota": "KOTA YOGYAKARTA", "Status Tem": "SEWA", "KBLI": "18120 - KEGIATAN JASA PENUNJANG PENCETAKAN", "Sarana Usa": "Rak display, SpayCat, palu, plat, danlain-lain", "Alamat": "JL.BUMIJO TENGAH NO.25", "Kelurahan_": "BUMIJO", "Kecamatan_": "JETIS", "Kab/Kota": "KOTA YOGYAKARTA", "Provinsi": "DI. YOGYAKARTA", "Nama_Usaha": "JASA BIKIN PLAT NOMOR KENDARAAN", "Alamat_Ush": "JALAN TENTARA PELAJAR", "Pelaku": "HERY PRIHANTO" }, "geometry": { "type": "Point", "coordinates": [ 110.3604119189024, -7.786027260122644 ] } },
{ "type": "Feature", "properties": { "field_1": 111, "NIB": 258000991316.0, "Tanggal Te": "11/09/2020", "X": 429488.1, "Y": 9139151.6, "Kelurahan": "BUMIJO", "Kecamatan": "JETIS", "Kota": "KOTA YOGYAKARTA", "Status Tem": "BUKAN SEWA", "KBLI": "47999 - PERDAGANGAN ECERAN BUKAN DI TOKO, KIOS, KAKI LIMA DAN LOS PASAR LAINNYA YTDL", "Sarana Usa": "Alat masak, Kardus", "Alamat": "BUMIJO KIDUL JT. I/1147", "Kelurahan_": "BUMIJO", "Kecamatan_": "JETIS", "Kab/Kota": "KOTA YOGYAKARTA", "Provinsi": "DI. YOGYAKARTA", "Nama_Usaha": "SNACK BU ESTI", "Alamat_Ush": "BUMIJO KIDUL JT1/1147 RT 34 RW 08", "Pelaku": "ESTI CHOTIFAH" }, "geometry": { "type": "Point", "coordinates": [ 110.360519680713907, -7.787416271546644 ] } },
{ "type": "Feature", "properties": { "field_1": 289, "NIB": 254011002293.0, "Tanggal Te": "29/10/2020", "X": 429523.9, "Y": 9139391.9, "Kelurahan": "BUMIJO", "Kecamatan": "JETIS", "Kota": "KOTA YOGYAKARTA", "Status Tem": "SEWA", "KBLI": "56306 - PENYEDIAAN MINUMAN KELILING/TEMPAT TIDAK TETAP", "Sarana Usa": "GEROBAK, MEJA, KURSI, PERALATAN RUMAH TANGGA", "Alamat": "SURYATMAJAN DN.1/48", "Kelurahan_": "SURYATMAJAN", "Kecamatan_": "DANUREJAN", "Kab/Kota": "KOTA YOGYAKARTA", "Provinsi": "DI. YOGYAKARTA", "Nama_Usaha": "ANGKRINGAN MAS SULLY", "Alamat_Ush": "JL.TENTARA PELAJAR", "Pelaku": "SULIANTORO" }, "geometry": { "type": "Point", "coordinates": [ 110.360809168040348, -7.785230266003322 ] } },
{ "type": "Feature", "properties": { "field_1": 146, "NIB": 229000912316.0, "Tanggal Te": "21/09/2020", "X": 429542.5, "Y": 9139188.3, "Kelurahan": "BUMIJO", "Kecamatan": "JETIS", "Kota": "KOTA YOGYAKARTA", "Status Tem": "SEWA", "KBLI": "45406 - PERDAGANGAN ECERAN SUKU CADANG SEPEDA MOTOR DAN AKSESORINYA", "Sarana Usa": "rumah", "Alamat": "JL. BUMIJO TENGAH NO.21 A", "Kelurahan_": "BUMIJO", "Kecamatan_": "JETIS", "Kab/Kota": "KOTA YOGYAKARTA", "Provinsi": "DI. YOGYAKARTA", "Nama_Usaha": "DAB HOBBIES", "Alamat_Ush": "JL.BUMIJO TENGAH NO 21A.", "Pelaku": "ANDREAS HENDRO PRAYOGI" }, "geometry": { "type": "Point", "coordinates": [ 110.3609950526955, -7.787078515176692 ] } },
{ "type": "Feature", "properties": { "field_1": 296, "NIB": 206012012569.0, "Tanggal Te": "26/10/2020", "X": 429552.3, "Y": 9139089.7, "Kelurahan": "BUMIJO", "Kecamatan": "JETIS", "Kota": "KOTA YOGYAKARTA", "Status Tem": "BUKAN SEWA", "KBLI": "47733 - PERDAGANGAN ECERAN KACA MATA", "Sarana Usa": "kaca mata, mesin,tesbok", "Alamat": "PINGIT JT. I/86", "Kelurahan_": "BUMIJO", "Kecamatan_": "JETIS", "Kab/Kota": "KOTA YOGYAKARTA", "Provinsi": "DI. YOGYAKARTA", "Nama_Usaha": "KACA MATA", "Alamat_Ush": "JL T.PELAJAR", "Pelaku": "KISMAN" }, "geometry": { "type": "Point", "coordinates": [ 110.361043623564527, -7.787941745248697 ] } },
{ "type": "Feature", "properties": { "field_1": 223, "NIB": 259010062542.0, "Tanggal Te": "24/10/2020", "X": 429602.2, "Y": 9139467.3, "Kelurahan": "BUMIJO", "Kecamatan": "JETIS", "Kota": "KOTA YOGYAKARTA", "Status Tem": "BUKAN SEWA", "KBLI": "15121 - INDUSTRI BARANG DARI KULIT DAN KULIT BUATAN UNTUK KEPERLUAN PRIBADI", "Sarana Usa": "Mesin Jahit, MesinEmbos, Kulit Sapi", "Alamat": "BUMIJO LOR JT. I/1204 E", "Kelurahan_": "BUMIJO", "Kecamatan_": "JETIS", "Kab/Kota": "KOTA YOGYAKARTA", "Provinsi": "DI. YOGYAKARTA", "Nama_Usaha": "MOEN LEATHER", "Alamat_Ush": "BUMIJO LOR JT. 1/1204 E RT.026/RW.006, BUMIJO, JET", "Pelaku": "TEJO HAIDAR MALIK" }, "geometry": { "type": "Point", "coordinates": [ 110.361520320693216, -7.784549336574334 ] } },
{ "type": "Feature", "properties": { "field_1": 4, "NIB": 9120201351181.0, "Tanggal Te": "18/03/2019", "X": 429638.4, "Y": 9139353.6, "Kelurahan": "BUMIJO", "Kecamatan": "JETIS", "Kota": "KOTA YOGYAKARTA", "Status Tem": null, "KBLI": "47249 - PERDAGANGAN ECERAN MAKANAN LAINNYA", "Sarana Usa": "Peralatan Dapur, Mesin Paking Listrik, Plastik Kemasan Bermerek", "Alamat": "JL. ANJASMARA II/46", "Kelurahan_": "turirejo", "Kecamatan_": "lawang", "Kab/Kota": "kab. malang", "Provinsi": "jawa timur", "Nama_Usaha": "MAKARYO SEMBODO", "Alamat_Ush": "JL. BUMIJO LOR NO. 1552", "Pelaku": "STEPHANUS KUS HARJANTO" }, "geometry": { "type": "Point", "coordinates": [ 110.361858102733748, -7.785556181503138 ] } },
{ "type": "Feature", "properties": { "field_1": 152, "NIB": 253000942237.0, "Tanggal Te": "23/09/2020", "X": 429642.2, "Y": 9139270.2, "Kelurahan": "BUMIJO", "Kecamatan": "JETIS", "Kota": "KOTA YOGYAKARTA", "Status Tem": "BUKAN SEWA", "KBLI": "47112 - PERDAGANGAN ECERAN BERBAGAI MACAM BARANG YANG UTAMANYA MAKANAN, MINUMAN ATAU TEMBAKAU BUKAN DI SUPERMARKET/MINIMARKET (TRADISIONAL)", "Sarana Usa": "etalase , rak , ruangusaha", "Alamat": "BUMIJO TENGAH JT. I/1312", "Kelurahan_": "BUMIJO", "Kecamatan_": "JETIS", "Kab/Kota": "KOTA YOGYAKARTA", "Provinsi": "DI. YOGYAKARTA", "Nama_Usaha": "TOKO KELONTONG BU NUR", "Alamat_Ush": "BUMIJO TENGAH JT 1/1312 RT 30 RW 07", "Pelaku": "MARDJINAH" }, "geometry": { "type": "Point", "coordinates": [ 110.361880392221181, -7.786332668198908 ] } },
{ "type": "Feature", "properties": { "field_1": 178, "NIB": 263010021155.0, "Tanggal Te": "15/10/2020", "X": 429650.9, "Y": 9139472.2, "Kelurahan": "BUMIJO", "Kecamatan": "JETIS", "Kota": "KOTA YOGYAKARTA", "Status Tem": "BUKAN SEWA", "KBLI": "47112 - PERDAGANGAN ECERAN BERBAGAI MACAM BARANG YANG UTAMANYA MAKANAN, MINUMAN ATAU TEMBAKAU BUKAN DI SUPERMARKET/MINIMARKET (TRADISIONAL)", "Sarana Usa": "Etalase, pendingin, rak,dll", "Alamat": "JL. SURYONEGARAN NO.22", "Kelurahan_": "BUMIJO", "Kecamatan_": "JETIS", "Kab/Kota": "KOTA YOGYAKARTA", "Provinsi": "DI. YOGYAKARTA", "Nama_Usaha": "TOKO KELONTONG PAK SUMARSO", "Alamat_Ush": "JL.SURYONEGARAN NO.22", "Pelaku": "SUMARSO" }, "geometry": { "type": "Point", "coordinates": [ 110.36192440035029, -7.784504896741391 ] } },
{ "type": "Feature", "properties": { "field_1": 168, "NIB": 214010011947.0, "Tanggal Te": "14/10/2020", "X": 429653.39, "Y": 9139082.07, "Kelurahan": "BUMIJO", "Kecamatan": "JETIS", "Kota": "KOTA YOGYAKARTA", "Status Tem": "BUKAN SEWA", "KBLI": "96999 - AKTIVITAS JASA PERORANGAN LAINNYA YTDL", "Sarana Usa": "Mesin cuci, mesinjahit, estalase, dansarana usaha lainnya", "Alamat": "JL SURYONEGARAN 4", "Kelurahan_": "BUMIJO", "Kecamatan_": "JETIS", "Kab/Kota": "KOTA YOGYAKARTA", "Provinsi": "DI. YOGYAKARTA", "Nama_Usaha": "VESTEMODISTE DAN LAUNDRY", "Alamat_Ush": "JL SURYONEGARAN 4 RT 033 RW 008", "Pelaku": "DEWI INDRIYANI" }, "geometry": { "type": "Point", "coordinates": [ 110.36197930272148, -7.78803447207919 ] } },
{ "type": "Feature", "properties": { "field_1": 60, "NIB": 220201892712.0, "Tanggal Te": "21/08/2020", "X": 429684.7, "Y": 9139294.2, "Kelurahan": "BUMIJO", "Kecamatan": "JETIS", "Kota": "KOTA YOGYAKARTA", "Status Tem": "BUKAN SEWA", "KBLI": "10710 - INDUSTRI PRODUK ROTI DAN KUE", "Sarana Usa": "Kompor dan peralatan memasak", "Alamat": "BUMIJO TENGAH JT I/ 1305 , RT 030 RW 007", "Kelurahan_": "BUMIJO", "Kecamatan_": "JETIS", "Kab/Kota": "KOTA YOGYAKARTA", "Provinsi": "DI. YOGYAKARTA", "Nama_Usaha": "KIPO MATARAM", "Alamat_Ush": "BUMIJO TENGAH JT I/ 1305 , RT 030 RW 007_x000D_", "Pelaku": "DIAN NITASARI" }, "geometry": { "type": "Point", "coordinates": [ 110.362303804845354, -7.786116156287803 ] } },
{ "type": "Feature", "properties": { "field_1": 134, "NIB": 264000961646.0, "Tanggal Te": "14/09/2020", "X": 429691.3, "Y": 9139426.0, "Kelurahan": "BUMIJO", "Kecamatan": "JETIS", "Kota": "KOTA YOGYAKARTA", "Status Tem": "SEWA", "KBLI": "10750 - INDUSTRI MAKANAN DAN MASAKAN OLAHAN", "Sarana Usa": "Alat-Ala Dapur danTeras Rumah", "Alamat": "BUMIJO LOR JT.I/1245", "Kelurahan_": "BUMIJO", "Kecamatan_": "JETIS", "Kab/Kota": "KOTA YOGYAKARTA", "Provinsi": "DI. YOGYAKARTA", "Nama_Usaha": "DAPUR MAMA SRI", "Alamat_Ush": "BUMIJO LOR JT 1/1242 RT 28 RW 07 KECAMTAN BUMIJO K", "Pelaku": "SRI DJUMIATI, NY" }, "geometry": { "type": "Point", "coordinates": [ 110.362327822901719, -7.784924114220694 ] } },
{ "type": "Feature", "properties": { "field_1": 31, "NIB": 9120202761154.0, "Tanggal Te": "15/07/2019", "X": 429711.5, "Y": 9139563.3, "Kelurahan": "BUMIJO", "Kecamatan": "JETIS", "Kota": "KOTA YOGYAKARTA", "Status Tem": null, "KBLI": "56103 - KEDAI MAKANAN", "Sarana Usa": "Kompor, Peralatan dapur dan sepeda Motor.", "Alamat": "BUMIJO LOR JT.I/1190", "Kelurahan_": "BUMIJO", "Kecamatan_": "JETIS", "Kab/Kota": "KOTA YOGYAKARTA", "Provinsi": "DI. YOGYAKARTA", "Nama_Usaha": "MAKNYUS", "Alamat_Ush": "BUMIJO LOR JT 1 / 1190 RT.22 RW.06", "Pelaku": "DESAK PUTU SRI EKA WAHYUNI" }, "geometry": { "type": "Point", "coordinates": [ 110.362484788291852, -7.783660060473821 ] } },
{ "type": "Feature", "properties": { "field_1": 458, "NIB": 1235001402443.0, "Tanggal Te": "24/04/2021", "X": 429713.63, "Y": 9139488.64, "Kelurahan": "BUMIJO", "Kecamatan": "JETIS", "Kota": "KOTA YOGYAKARTA", "Status Tem": "SEWA", "KBLI": "56102 - WARUNG MAKAN", "Sarana Usa": "Gerobak, Panci, Kompor", "Alamat": "BUMIJO LOR JT I/1195 B", "Kelurahan_": "BUMIJO", "Kecamatan_": "JETIS", "Kab/Kota": "KOTA YOGYAKARTA", "Provinsi": "DI. YOGYAKARTA", "Nama_Usaha": "MIE AYAM & MIE KOPYOK MAS BEWENG", "Alamat_Ush": "JALAN BUMIJO LOR JT 1/1195 B, RT 24 RW 06", "Pelaku": "NURUL WULANDARI" }, "geometry": { "type": "Point", "coordinates": [ 110.362531194789298, -7.784357834645073 ] } },
{ "type": "Feature", "properties": { "field_1": 130, "NIB": 222000981348.0, "Tanggal Te": "14/09/2020", "X": 429745.8, "Y": 9139509.8, "Kelurahan": "BUMIJO", "Kecamatan": "JETIS", "Kota": "KOTA YOGYAKARTA", "Status Tem": "BUKAN SEWA", "KBLI": "98100 - AKTIVITAS YANG MENGHASILKAN BARANG OLEH RUMAH TANGGA YANG DIGUNAKAN UNTUK MEMENUHI KEBUTUHAN SENDIRI", "Sarana Usa": "Rumah, motor,blender, cup sealer,box", "Alamat": "BUMIJO LOR JT.I/1185", "Kelurahan_": "BUMIJO", "Kecamatan_": "JETIS", "Kab/Kota": "KOTA YOGYAKARTA", "Provinsi": "DI. YOGYAKARTA", "Nama_Usaha": "JUSTIN", "Alamat_Ush": "BUMIJO LOR JT1/1185 RT22 RW06", "Pelaku": "KRISTIN SUHARYANI" }, "geometry": { "type": "Point", "coordinates": [ 110.362828793875721, -7.784164758039098 ] } },
{ "type": "Feature", "properties": { "field_1": 80, "NIB": 220208863008.0, "Tanggal Te": "30/08/2020", "X": 429754.9, "Y": 9139393.3, "Kelurahan": "BUMIJO", "Kecamatan": "JETIS", "Kota": "KOTA YOGYAKARTA", "Status Tem": "BUKAN SEWA", "KBLI": "98100 - AKTIVITAS YANG MENGHASILKAN BARANG OLEH RUMAH TANGGA YANG DIGUNAKAN UNTUK MEMENUHI KEBUTUHAN SENDIRI", "Sarana Usa": "Rumah, alat masak", "Alamat": "BUMIJO LOR JT. I/1265", "Kelurahan_": "BUMIJO", "Kecamatan_": "JETIS", "Kab/Kota": "KOTA YOGYAKARTA", "Provinsi": "DI. YOGYAKARTA", "Nama_Usaha": "SEA FOOD SARI LAUT \"CAK AJI\"", "Alamat_Ush": "BUMIJO LOR JT 1/1265", "Pelaku": "SITI SUILAH" }, "geometry": { "type": "Point", "coordinates": [ 110.362904178735789, -7.785220755349751 ] } },
{ "type": "Feature", "properties": { "field_1": 352, "NIB": 266010161527.0, "Tanggal Te": "12/11/2020", "X": 429773.97, "Y": 9139424.83, "Kelurahan": "BUMIJO", "Kecamatan": "JETIS", "Kota": "KOTA YOGYAKARTA", "Status Tem": "SEWA", "KBLI": "47999 - PERDAGANGAN ECERAN BUKAN DI TOKO, KIOS, KAKI LIMA DAN LOS PASAR LAINNYA YTDL", "Sarana Usa": "Mesin foto copy, mesin printer, komputer, mesin press, mesin laminating, pisau pemotong kertas,", "Alamat": "PEMANGKU PENYANTUN", "Kelurahan_": "TANJUNG RAYA", "Kecamatan_": "SUKAU", "Kab/Kota": "KAB. LAMPUNG BARAT", "Provinsi": "LAMPUNG", "Nama_Usaha": "JAYA MANDIRI COPY CENTER", "Alamat_Ush": "JL BUMIJO NO 19 GOWONGAN JETIS", "Pelaku": "ADE SAPUTRA" }, "geometry": { "type": "Point", "coordinates": [ 110.363077559545175, -7.784935823629441 ] } },
{ "type": "Feature", "properties": { "field_1": 101, "NIB": 220806970149.0, "Tanggal Te": "04/09/2020", "X": 429778.9, "Y": 9139355.6, "Kelurahan": "BUMIJO", "Kecamatan": "JETIS", "Kota": "KOTA YOGYAKARTA", "Status Tem": "SEWA", "KBLI": "10750 - INDUSTRI MAKANAN DAN MASAKAN OLAHAN", "Sarana Usa": "Kios dan ruko", "Alamat": "KARANGGAYAM, JL. KOROS CT. 8 / 51", "Kelurahan_": "CATURTUNGGAL", "Kecamatan_": "DEPOK", "Kab/Kota": "KAB. SLEMAN", "Provinsi": "DI. YOGYAKARTA", "Nama_Usaha": "GUDEG BU TINI", "Alamat_Ush": "JL. BUMIJO LOR NO.2A", "Pelaku": "PARDIMAS" }, "geometry": { "type": "Point", "coordinates": [ 110.362934878634832, -7.785553767044754 ] } },
{ "type": "Feature", "properties": { "field_1": 46, "NIB": 220007142147.0, "Tanggal Te": "24/01/2020", "X": 429785.1, "Y": 9139504.3, "Kelurahan": "BUMIJO", "Kecamatan": "JETIS", "Kota": "KOTA YOGYAKARTA", "Status Tem": "SEWA", "KBLI": "10792 - INDUSTRI KUE BASAH", "Sarana Usa": "Alat Masak, Alat Pembuatan Kue", "Alamat": "JL. BUMIJO NO.37", "Kelurahan_": "BUMIJO", "Kecamatan_": "JETIS", "Kab/Kota": "KOTA YOGYAKARTA", "Provinsi": "DI. YOGYAKARTA", "Nama_Usaha": "MOCCI SAKURA", "Alamat_Ush": "JL. BUMIJO NO. 37, RT 022/RW 06, BUMIJO, JETIS", "Pelaku": "FERIYANTI" }, "geometry": { "type": "Point", "coordinates": [ 110.363155323898255, -7.784190793604441 ] } }
]
}
